[{"OBJECT_NAME":"IONOSFERA-M 3","OBJECT_ID":"2025-155A","EPOCH":"2026-04-01T12:31:17.399424","MEAN_MOTION":14.21472078,"ECCENTRICITY":0.0002489,"INCLINATION":98.5958,"RA_OF_ASC_NODE":55.3868,"ARG_OF_PERICENTER":83.0641,"MEAN_ANOMALY":277.082,"EPHEMERIS_TYPE":0,"CLASSIFICATION_TYPE":"U","NORAD_CAT_ID":64876,"ELEMENT_SET_NO":999,"REV_AT_EPOCH":3551,"BSTAR":5.6015e-5,"MEAN_MOTION_DOT":8.0e-7,"MEAN_MOTION_DDOT":0},{"OBJECT_NAME":"IONOSFERA-M 4","OBJECT_ID":"2025-155B","EPOCH":"2026-04-01T11:40:15.380832","MEAN_MOTION":14.21473901,"ECCENTRICITY":0.0001855,"INCLINATION":98.5957,"RA_OF_ASC_NODE":55.2705,"ARG_OF_PERICENTER":79.2665,"MEAN_ANOMALY":280.8721,"EPHEMERIS_TYPE":0,"CLASSIFICATION_TYPE":"U","NORAD_CAT_ID":64877,"ELEMENT_SET_NO":999,"REV_AT_EPOCH":3550,"BSTAR":5.5126e-5,"MEAN_MOTION_DOT":7.8e-7,"MEAN_MOTION_DDOT":0},{"OBJECT_NAME":"MICROCARB","OBJECT_ID":"2025-156A","EPOCH":"2026-04-01T11:42:33.065280","MEAN_MOTION":14.72237474,"ECCENTRICITY":0.0017087,"INCLINATION":97.9856,"RA_OF_ASC_NODE":169.9913,"ARG_OF_PERICENTER":153.4402,"MEAN_ANOMALY":206.7685,"EPHEMERIS_TYPE":0,"CLASSIFICATION_TYPE":"U","NORAD_CAT_ID":64899,"ELEMENT_SET_NO":999,"REV_AT_EPOCH":3668,"BSTAR":0.00012153,"MEAN_MOTION_DOT":7.19e-6,"MEAN_MOTION_DDOT":0},{"OBJECT_NAME":"CO3D 3","OBJECT_ID":"2025-156B","EPOCH":"2026-03-31T12:24:07.045344","MEAN_MOTION":15.20193533,"ECCENTRICITY":0.00020689,"INCLINATION":97.4337,"RA_OF_ASC_NODE":170.3268,"ARG_OF_PERICENTER":103.149,"MEAN_ANOMALY":256.9977,"EPHEMERIS_TYPE":0,"CLASSIFICATION_TYPE":"U","NORAD_CAT_ID":64900,"ELEMENT_SET_NO":999,"REV_AT_EPOCH":3773,"BSTAR":8.512647e-6,"MEAN_MOTION_DOT":1.17e-6,"MEAN_MOTION_DDOT":0},{"OBJECT_NAME":"CO3D 4","OBJECT_ID":"2025-156C","EPOCH":"2026-04-01T12:06:06.976224","MEAN_MOTION":15.20200978,"ECCENTRICITY":0.00013,"INCLINATION":97.433,"RA_OF_ASC_NODE":171.2983,"ARG_OF_PERICENTER":144.8781,"MEAN_ANOMALY":215.254,"EPHEMERIS_TYPE":0,"CLASSIFICATION_TYPE":"U","NORAD_CAT_ID":64901,"ELEMENT_SET_NO":999,"REV_AT_EPOCH":3788,"BSTAR":0.00028706,"MEAN_MOTION_DOT":6.152e-5,"MEAN_MOTION_DDOT":0},{"OBJECT_NAME":"CO3D 2","OBJECT_ID":"2025-156D","EPOCH":"2026-04-01T11:18:05.424768","MEAN_MOTION":15.20210773,"ECCENTRICITY":0.0001468,"INCLINATION":97.4329,"RA_OF_ASC_NODE":171.1644,"ARG_OF_PERICENTER":79.8346,"MEAN_ANOMALY":280.3055,"EPHEMERIS_TYPE":0,"CLASSIFICATION_TYPE":"U","NORAD_CAT_ID":64902,"ELEMENT_SET_NO":999,"REV_AT_EPOCH":3787,"BSTAR":0.00023772,"MEAN_MOTION_DOT":5.083e-5,"MEAN_MOTION_DDOT":0},{"OBJECT_NAME":"CO3D 1","OBJECT_ID":"2025-156E","EPOCH":"2026-04-01T11:18:18.956736","MEAN_MOTION":15.20200071,"ECCENTRICITY":0.0001507,"INCLINATION":97.433,"RA_OF_ASC_NODE":171.1646,"ARG_OF_PERICENTER":87.7035,"MEAN_ANOMALY":272.4373,"EPHEMERIS_TYPE":0,"CLASSIFICATION_TYPE":"U","NORAD_CAT_ID":64903,"ELEMENT_SET_NO":999,"REV_AT_EPOCH":3787,"BSTAR":0.00021581,"MEAN_MOTION_DOT":4.607e-5,"MEAN_MOTION_DDOT":0},{"OBJECT_NAME":"SENTINEL-6B","OBJECT_ID":"2025-264A","EPOCH":"2026-04-01T00:35:52.174752","MEAN_MOTION":12.8093033,"ECCENTRICITY":0.0007888,"INCLINATION":66.0406,"RA_OF_ASC_NODE":295.4481,"ARG_OF_PERICENTER":270.3854,"MEAN_ANOMALY":89.6257,"EPHEMERIS_TYPE":0,"CLASSIFICATION_TYPE":"U","NORAD_CAT_ID":66514,"ELEMENT_SET_NO":999,"REV_AT_EPOCH":1728,"BSTAR":0.00012899,"MEAN_MOTION_DOT":-3.1e-7,"MEAN_MOTION_DDOT":0},{"OBJECT_NAME":"CSG-3","OBJECT_ID":"2026-001A","EPOCH":"2026-04-01T12:10:10.360704","MEAN_MOTION":14.82152571,"ECCENTRICITY":0.000139,"INCLINATION":97.888,"RA_OF_ASC_NODE":276.2161,"ARG_OF_PERICENTER":86.6523,"MEAN_ANOMALY":273.4849,"EPHEMERIS_TYPE":0,"CLASSIFICATION_TYPE":"U","NORAD_CAT_ID":67304,"ELEMENT_SET_NO":999,"REV_AT_EPOCH":1310,"BSTAR":6.4322e-5,"MEAN_MOTION_DOT":4.6e-6,"MEAN_MOTION_DDOT":0}]
