IONOSFERA-M 3           
1 64876U 25155A   26091.52172916  .00000080  00000+0  56015-4 0  9998
2 64876  98.5958  55.3868 0002489  83.0641 277.0820 14.21472078 35513
IONOSFERA-M 4           
1 64877U 25155B   26091.48628913  .00000078  00000+0  55126-4 0  9996
2 64877  98.5957  55.2705 0001855  79.2665 280.8721 14.21473901 35508
MICROCARB               
1 64899U 25156A   26091.48788270  .00000719  00000+0  12153-3 0  9998
2 64899  97.9856 169.9913 0017087 153.4402 206.7685 14.72237474 36680
CO3D 3                  
1 64900U 25156B   26090.51674821  .00000117  00000+0  85126-5 0  9994
2 64900  97.4337 170.3268 0002068 103.1490 256.9977 15.20193533 37732
CO3D 4                  
1 64901U 25156C   26091.50424741  .00006152  00000+0  28706-3 0  9993
2 64901  97.4330 171.2983 0001300 144.8781 215.2540 15.20200978 37885
CO3D 2                  
1 64902U 25156D   26091.47089612  .00005083  00000+0  23772-3 0  9994
2 64902  97.4329 171.1644 0001468  79.8346 280.3055 15.20210773 37873
CO3D 1                  
1 64903U 25156E   26091.47105274  .00004607  00000+0  21581-3 0  9995
2 64903  97.4330 171.1646 0001507  87.7035 272.4373 15.20200071 37870
SENTINEL-6B             
1 66514U 25264A   26091.02490943 -.00000031  00000+0  12899-3 0  9996
2 66514  66.0406 295.4481 0007888 270.3854  89.6257 12.80930330 17283
CSG-3                   
1 67304U 26001A   26091.50706436  .00000460  00000+0  64322-4 0  9998
2 67304  97.8880 276.2161 0001390  86.6523 273.4849 14.82152571 13108
